start=new Date('2021-12-06T00:00:00.000Z').valueOf();
sats=[{"LAUNCH_DATE":"2021-02-16","MEAN_MOTION_DOT":"0.00000195","ELEMENT_SET_NO":"999","MEAN_ANOMALY":"279.8289","MEAN_MOTION":"15.06389907","NORAD_CAT_ID":"47664","REV_AT_EPOCH":"4592","GP_ID":"191169794","REF_FRAME":"TEME","MEAN_ELEMENT_THEORY":"SGP4","SITE":"AFETR","EPOCH":"2021-12-05T20:50:30.694848","ECCENTRICITY":"0.00020950","COUNTRY_CODE":"US","CENTER_NAME":"EARTH","DECAY_DATE":null,"EPHEMERIS_TYPE":"0","OBJECT_TYPE":"PAYLOAD","FILE":"3233515","MEAN_MOTION_DDOT":"0.0000000000000","RA_OF_ASC_NODE":"191.4908","RCS_SIZE":"LARGE","TLE_LINE2":"2 47664  53.0538 191.4908 0002095  80.2937 279.8289 15.06389907 45923","OBJECT_ID":"2021-012AW","INCLINATION":"53.0538","PERIOD":"95.593","OBJECT_NAME":"STARLINK-2054","CLASSIFICATION_TYPE":"U","ARG_OF_PERICENTER":"80.2937","BSTAR":"0.00003199700000","APOAPSIS":"548.695","PERIAPSIS":"545.794","TIME_SYSTEM":"UTC","TLE_LINE1":"1 47664U 21012AW  21339.86841082  .00000195  00000-0  31997-4 0  9996","SEMIMAJOR_AXIS":"6925.379"},{"EPHEMERIS_TYPE":"0","OBJECT_TYPE":"PAYLOAD","FILE":"3233515","RA_OF_ASC_NODE":"186.5845","MEAN_MOTION_DDOT":"0.0000000000000","RCS_SIZE":"LARGE","TLE_LINE2":"2 47665  53.0542 186.5845 0007286  67.4439 292.7321 15.06401606 45983","OBJECT_ID":"2021-012AX","INCLINATION":"53.0542","PERIOD":"95.592","OBJECT_NAME":"STARLINK-2056","ARG_OF_PERICENTER":"67.4439","CLASSIFICATION_TYPE":"U","BSTAR":"0.00009790800000","APOAPSIS":"552.254","PERIAPSIS":"542.163","TIME_SYSTEM":"UTC","TLE_LINE1":"1 47665U 21012AX  21339.84396172  .00001175  00000-0  97908-4 0  9993","SEMIMAJOR_AXIS":"6925.344","LAUNCH_DATE":"2021-02-16","ELEMENT_SET_NO":"999","MEAN_MOTION_DOT":"0.00001175","MEAN_ANOMALY":"292.7321","MEAN_MOTION":"15.06401606","NORAD_CAT_ID":"47665","REV_AT_EPOCH":"4598","GP_ID":"191170545","MEAN_ELEMENT_THEORY":"SGP4","REF_FRAME":"TEME","SITE":"AFETR","EPOCH":"2021-12-05T20:15:18.292608","COUNTRY_CODE":"US","ECCENTRICITY":"0.00072860","CENTER_NAME":"EARTH","DECAY_DATE":null},{"REF_FRAME":"TEME","MEAN_ELEMENT_THEORY":"SGP4","SITE":"AFETR","EPOCH":"2021-12-05T21:03:04.019040","ECCENTRICITY":"0.00025300","COUNTRY_CODE":"US","DECAY_DATE":null,"CENTER_NAME":"EARTH","LAUNCH_DATE":"2021-02-16","MEAN_MOTION_DOT":"0.00001651","ELEMENT_SET_NO":"999","MEAN_MOTION":"15.06397386","MEAN_ANOMALY":"280.9700","NORAD_CAT_ID":"47666","REV_AT_EPOCH":"4599","GP_ID":"191170796","OBJECT_NAME":"STARLINK-2057","ARG_OF_PERICENTER":"79.1574","CLASSIFICATION_TYPE":"U","PERIAPSIS":"545.469","APOAPSIS":"548.974","BSTAR":"0.00012972000000","TLE_LINE1":"1 47666U 21012AY  21339.87712985  .00001651  00000-0  12972-3 0  9997","TIME_SYSTEM":"UTC","SEMIMAJOR_AXIS":"6925.357","EPHEMERIS_TYPE":"0","OBJECT_TYPE":"PAYLOAD","RA_OF_ASC_NODE":"186.4396","MEAN_MOTION_DDOT":"0.0000000000000","FILE":"3233515","RCS_SIZE":"MEDIUM","INCLINATION":"53.0551","OBJECT_ID":"2021-012AY","TLE_LINE2":"2 47666  53.0551 186.4396 0002530  79.1574 280.9700 15.06397386 45991","PERIOD":"95.592"},{"CLASSIFICATION_TYPE":"U","ARG_OF_PERICENTER":"72.4304","PERIAPSIS":"546.013","APOAPSIS":"548.484","BSTAR":"0.00003685800000","OBJECT_NAME":"STARLINK-2058","SEMIMAJOR_AXIS":"6925.383","TLE_LINE1":"1 47667U 21012AZ  21339.89974853  .00000267  00000-0  36858-4 0  9996","TIME_SYSTEM":"UTC","RA_OF_ASC_NODE":"211.3487","MEAN_MOTION_DDOT":"0.0000000000000","FILE":"3233515","EPHEMERIS_TYPE":"0","OBJECT_TYPE":"PAYLOAD","INCLINATION":"53.0537","OBJECT_ID":"2021-012AZ","TLE_LINE2":"2 47667  53.0537 211.3487 0001784  72.4304 287.6880 15.06388698 45621","PERIOD":"95.593","RCS_SIZE":"LARGE","EPOCH":"2021-12-05T21:35:38.272992","REF_FRAME":"TEME","MEAN_ELEMENT_THEORY":"SGP4","SITE":"AFETR","DECAY_DATE":null,"CENTER_NAME":"EARTH","COUNTRY_CODE":"US","ECCENTRICITY":"0.00017840","MEAN_MOTION":"15.06388698","MEAN_ANOMALY":"287.6880","LAUNCH_DATE":"2021-02-16","ELEMENT_SET_NO":"999","MEAN_MOTION_DOT":"0.00000267","REV_AT_EPOCH":"4562","GP_ID":"191171547","NORAD_CAT_ID":"47667"},{"NORAD_CAT_ID":"47668","REV_AT_EPOCH":"4592","GP_ID":"191170295","LAUNCH_DATE":"2021-02-16","MEAN_MOTION_DOT":"0.00000925","ELEMENT_SET_NO":"999","MEAN_ANOMALY":"279.7918","MEAN_MOTION":"15.06400687","COUNTRY_CODE":"US","ECCENTRICITY":"0.00021970","CENTER_NAME":"EARTH","DECAY_DATE":null,"REF_FRAME":"TEME","MEAN_ELEMENT_THEORY":"SGP4","SITE":"AFETR","EPOCH":"2021-12-05T21:01:06.991104","RCS_SIZE":"LARGE","OBJECT_ID":"2021-012BA","TLE_LINE2":"2 47668  53.0528 191.4597 0002197  80.3319 279.7918 15.06400687 45925","INCLINATION":"53.0528","PERIOD":"95.592","EPHEMERIS_TYPE":"0","OBJECT_TYPE":"PAYLOAD","FILE":"3233515","RA_OF_ASC_NODE":"191.4597","MEAN_MOTION_DDOT":"0.0000000000000","TIME_SYSTEM":"UTC","TLE_LINE1":"1 47668U 21012BA  21339.87577536  .00000925  00000-0  81011-4 0  9994","SEMIMAJOR_AXIS":"6925.346","OBJECT_NAME":"STARLINK-2059","CLASSIFICATION_TYPE":"U","ARG_OF_PERICENTER":"80.3319","BSTAR":"0.00008101100000","PERIAPSIS":"545.690","APOAPSIS":"548.733"},{"RA_OF_ASC_NODE":"116.2575","MEAN_MOTION_DDOT":"0.0000000000000","FILE":"3233515","OBJECT_TYPE":"PAYLOAD","EPHEMERIS_TYPE":"0","PERIOD":"95.593","INCLINATION":"53.0546","OBJECT_ID":"2021-012BB","TLE_LINE2":"2 47669  53.0546 116.2575 0002423  80.8140 138.8930 15.06392120  3594","RCS_SIZE":"MEDIUM","APOAPSIS":"548.916","PERIAPSIS":"545.560","BSTAR":"0.00061345000000","CLASSIFICATION_TYPE":"U","ARG_OF_PERICENTER":"80.8140","OBJECT_NAME":"STARLINK-2060","SEMIMAJOR_AXIS":"6925.373","TLE_LINE1":"1 47669U 21012BB  21339.91667824  .00008866  00000-0  61345-3 0  9999","TIME_SYSTEM":"UTC","MEAN_MOTION":"15.06392120","MEAN_ANOMALY":"138.8930","ELEMENT_SET_NO":"999","MEAN_MOTION_DOT":"0.00008866","LAUNCH_DATE":"2021-02-16","GP_ID":"191170045","REV_AT_EPOCH":"359","NORAD_CAT_ID":"47669","EPOCH":"2021-12-05T22:00:00.999936","SITE":"AFETR","REF_FRAME":"TEME","MEAN_ELEMENT_THEORY":"SGP4","DECAY_DATE":null,"CENTER_NAME":"EARTH","ECCENTRICITY":"0.00024230","COUNTRY_CODE":"US"},{"FILE":"3233515","RA_OF_ASC_NODE":"191.3726","MEAN_MOTION_DDOT":"0.0000000000000","OBJECT_TYPE":"PAYLOAD","EPHEMERIS_TYPE":"0","PERIOD":"95.593","TLE_LINE2":"2 47670  53.0540 191.3726 0008271  86.8656 273.3279 15.06387848 45911","OBJECT_ID":"2021-012BC","INCLINATION":"53.0540","RCS_SIZE":"LARGE","BSTAR":"0.00007612000000","PERIAPSIS":"541.523","APOAPSIS":"552.979","ARG_OF_PERICENTER":"86.8656","CLASSIFICATION_TYPE":"U","OBJECT_NAME":"STARLINK-2062","SEMIMAJOR_AXIS":"6925.386","TIME_SYSTEM":"UTC","TLE_LINE1":"1 47670U 21012BC  21339.89054423  .00000850  00000-0  76120-4 0  9996","MEAN_ANOMALY":"273.3279","MEAN_MOTION":"15.06387848","ELEMENT_SET_NO":"999","MEAN_MOTION_DOT":"0.00000850","LAUNCH_DATE":"2021-02-16","GP_ID":"191171297","REV_AT_EPOCH":"4591","NORAD_CAT_ID":"47670","EPOCH":"2021-12-05T21:22:23.021472","SITE":"AFETR","REF_FRAME":"TEME","MEAN_ELEMENT_THEORY":"SGP4","CENTER_NAME":"EARTH","DECAY_DATE":null,"ECCENTRICITY":"0.00082710","COUNTRY_CODE":"US"},{"MEAN_MOTION_DDOT":"0.0000000000000","RA_OF_ASC_NODE":"191.4750","FILE":"3233515","OBJECT_TYPE":"PAYLOAD","EPHEMERIS_TYPE":"0","PERIOD":"95.592","INCLINATION":"53.0542","TLE_LINE2":"2 47671  53.0542 191.4750 0002363  82.9901 277.1357 15.06404398 45928","OBJECT_ID":"2021-012BD","RCS_SIZE":"LARGE","PERIAPSIS":"545.564","APOAPSIS":"548.837","BSTAR":"0.00008838800000","ARG_OF_PERICENTER":"82.9901","CLASSIFICATION_TYPE":"U","OBJECT_NAME":"STARLINK-2064","SEMIMAJOR_AXIS":"6925.335","TLE_LINE1":"1 47671U 21012BD  21339.87208484  .00001035  00000-0  88388-4 0  9998","TIME_SYSTEM":"UTC","MEAN_MOTION":"15.06404398","MEAN_ANOMALY":"277.1357","ELEMENT_SET_NO":"999","MEAN_MOTION_DOT":"0.00001035","LAUNCH_DATE":"2021-02-16","GP_ID":"191171047","REV_AT_EPOCH":"4592","NORAD_CAT_ID":"47671","EPOCH":"2021-12-05T20:55:48.130176","SITE":"AFETR","MEAN_ELEMENT_THEORY":"SGP4","REF_FRAME":"TEME","DECAY_DATE":null,"CENTER_NAME":"EARTH","COUNTRY_CODE":"US","ECCENTRICITY":"0.00023630"},{"FILE":"3233515","RA_OF_ASC_NODE":"181.5522","MEAN_MOTION_DDOT":"0.0000000000000","OBJECT_TYPE":"PAYLOAD","EPHEMERIS_TYPE":"0","PERIOD":"95.592","OBJECT_ID":"2021-012BE","TLE_LINE2":"2 47672  53.0544 181.5522 0003217  82.0898 278.0456 15.06400648 46030","INCLINATION":"53.0544","RCS_SIZE":"LARGE","BSTAR":"0.00008336800000","PERIAPSIS":"544.984","APOAPSIS":"549.439","ARG_OF_PERICENTER":"82.0898","CLASSIFICATION_TYPE":"U","OBJECT_NAME":"STARLINK-2065","SEMIMAJOR_AXIS":"6925.347","TIME_SYSTEM":"UTC","TLE_LINE1":"1 47672U 21012BE  21339.85090448  .00000960  00000-0  83368-4 0  9995","MEAN_ANOMALY":"278.0456","MEAN_MOTION":"15.06400648","MEAN_MOTION_DOT":"0.00000960","ELEMENT_SET_NO":"999","LAUNCH_DATE":"2021-02-16","GP_ID":"191169795","REV_AT_EPOCH":"4603","NORAD_CAT_ID":"47672","EPOCH":"2021-12-05T20:25:18.147072","SITE":"AFETR","MEAN_ELEMENT_THEORY":"SGP4","REF_FRAME":"TEME","CENTER_NAME":"EARTH","DECAY_DATE":null,"ECCENTRICITY":"0.00032170","COUNTRY_CODE":"US"},{"DECAY_DATE":null,"CENTER_NAME":"EARTH","ECCENTRICITY":"0.00021960","COUNTRY_CODE":"US","EPOCH":"2021-12-05T21:27:39.394944","SITE":"AFETR","MEAN_ELEMENT_THEORY":"SGP4","REF_FRAME":"TEME","GP_ID":"191170546","REV_AT_EPOCH":"4591","NORAD_CAT_ID":"47673","MEAN_MOTION":"15.06397282","MEAN_ANOMALY":"278.3794","ELEMENT_SET_NO":"999","MEAN_MOTION_DOT":"0.00002057","LAUNCH_DATE":"2021-02-16","SEMIMAJOR_AXIS":"6925.357","TLE_LINE1":"1 47673U 21012BF  21339.89420596  .00002057  00000-0  15699-3 0  9991","TIME_SYSTEM":"UTC","APOAPSIS":"548.743","PERIAPSIS":"545.701","BSTAR":"0.00015699000000","ARG_OF_PERICENTER":"81.7444","CLASSIFICATION_TYPE":"U","OBJECT_NAME":"STARLINK-2066","PERIOD":"95.592","INCLINATION":"53.0535","TLE_LINE2":"2 47673  53.0535 191.3616 0002196  81.7444 278.3794 15.06397282 45915","OBJECT_ID":"2021-012BF","RCS_SIZE":"LARGE","RA_OF_ASC_NODE":"191.3616","MEAN_MOTION_DDOT":"0.0000000000000","FILE":"3233515","OBJECT_TYPE":"PAYLOAD","EPHEMERIS_TYPE":"0"}];
